[{"OBJECT_NAME":"STARLINK-30498","OBJECT_ID":"2023-151H","EPOCH":"2025-09-04T08:51:04.999104","MEAN_MOTION":15.02529092,"ECCENTRICITY":0.00012988,"INCLINATION":43.0038,"RA_OF_ASC_NODE":271.4053,"ARG_OF_PERICENTER":267.1872,"MEAN_ANOMALY":92.8822,"EPHEMERIS_TYPE":0,"CLASSIFICATION_TYPE":"U","NORAD_CAT_ID":57971,"ELEMENT_SET_NO":999,"REV_AT_EPOCH":10770,"BSTAR":-1.8812276e-5,"MEAN_MOTION_DOT":-4.58e-6,"MEAN_MOTION_DDOT":0},{"OBJECT_NAME":"STARLINK-30505","OBJECT_ID":"2023-151J","EPOCH":"2025-09-04T12:26:30.683616","MEAN_MOTION":15.02532731,"ECCENTRICITY":0.00012104,"INCLINATION":43.0024,"RA_OF_ASC_NODE":270.8088,"ARG_OF_PERICENTER":273.4884,"MEAN_ANOMALY":86.582,"EPHEMERIS_TYPE":0,"CLASSIFICATION_TYPE":"U","NORAD_CAT_ID":57972,"ELEMENT_SET_NO":999,"REV_AT_EPOCH":10772,"BSTAR":1.8746314e-5,"MEAN_MOTION_DOT":5.0e-7,"MEAN_MOTION_DDOT":0},{"OBJECT_NAME":"STARLINK-30502","OBJECT_ID":"2023-151K","EPOCH":"2025-09-04T10:33:12.536352","MEAN_MOTION":15.02528127,"ECCENTRICITY":0.0001096,"INCLINATION":43.004,"RA_OF_ASC_NODE":271.0759,"ARG_OF_PERICENTER":280.4006,"MEAN_ANOMALY":79.6713,"EPHEMERIS_TYPE":0,"CLASSIFICATION_TYPE":"U","NORAD_CAT_ID":57973,"ELEMENT_SET_NO":999,"REV_AT_EPOCH":10771,"BSTAR":-5.2539446e-5,"MEAN_MOTION_DOT":-9.13e-6,"MEAN_MOTION_DDOT":0},{"OBJECT_NAME":"STARLINK-30489","OBJECT_ID":"2023-151L","EPOCH":"2025-09-04T11:09:47.992320","MEAN_MOTION":15.02527692,"ECCENTRICITY":0.00012921,"INCLINATION":43.0031,"RA_OF_ASC_NODE":270.4178,"ARG_OF_PERICENTER":268.0195,"MEAN_ANOMALY":92.05,"EPHEMERIS_TYPE":0,"CLASSIFICATION_TYPE":"U","NORAD_CAT_ID":57974,"ELEMENT_SET_NO":999,"REV_AT_EPOCH":10772,"BSTAR":-1.8194758e-5,"MEAN_MOTION_DOT":-4.49e-6,"MEAN_MOTION_DDOT":0},{"OBJECT_NAME":"STARLINK-30503","OBJECT_ID":"2023-151M","EPOCH":"2025-09-04T12:20:07.421856","MEAN_MOTION":15.02525535,"ECCENTRICITY":0.00012728,"INCLINATION":43.0034,"RA_OF_ASC_NODE":270.7536,"ARG_OF_PERICENTER":267.7025,"MEAN_ANOMALY":92.3672,"EPHEMERIS_TYPE":0,"CLASSIFICATION_TYPE":"U","NORAD_CAT_ID":57975,"ELEMENT_SET_NO":999,"REV_AT_EPOCH":10772,"BSTAR":-4.1718824e-5,"MEAN_MOTION_DOT":-7.67e-6,"MEAN_MOTION_DDOT":0},{"OBJECT_NAME":"STARLINK-30512","OBJECT_ID":"2023-151N","EPOCH":"2025-09-04T11:35:21.003072","MEAN_MOTION":15.02547445,"ECCENTRICITY":0.00018713,"INCLINATION":43.0042,"RA_OF_ASC_NODE":270.4885,"ARG_OF_PERICENTER":290.4377,"MEAN_ANOMALY":69.6265,"EPHEMERIS_TYPE":0,"CLASSIFICATION_TYPE":"U","NORAD_CAT_ID":57976,"ELEMENT_SET_NO":999,"REV_AT_EPOCH":10772,"BSTAR":-0.00017305923,"MEAN_MOTION_DOT":-2.541e-5,"MEAN_MOTION_DDOT":0},{"OBJECT_NAME":"STARLINK-30509","OBJECT_ID":"2023-151P","EPOCH":"2025-09-04T09:41:48.406272","MEAN_MOTION":15.02526879,"ECCENTRICITY":0.00013657,"INCLINATION":43.0027,"RA_OF_ASC_NODE":284.3972,"ARG_OF_PERICENTER":265.8158,"MEAN_ANOMALY":94.2529,"EPHEMERIS_TYPE":0,"CLASSIFICATION_TYPE":"U","NORAD_CAT_ID":57977,"ELEMENT_SET_NO":999,"REV_AT_EPOCH":10755,"BSTAR":4.0043476e-5,"MEAN_MOTION_DOT":3.37e-6,"MEAN_MOTION_DDOT":0},{"OBJECT_NAME":"STARLINK-30511","OBJECT_ID":"2023-151Q","EPOCH":"2025-09-04T11:07:57.028800","MEAN_MOTION":15.02524618,"ECCENTRICITY":0.00013465,"INCLINATION":43.0025,"RA_OF_ASC_NODE":283.9893,"ARG_OF_PERICENTER":271.1297,"MEAN_ANOMALY":88.9391,"EPHEMERIS_TYPE":0,"CLASSIFICATION_TYPE":"U","NORAD_CAT_ID":57978,"ELEMENT_SET_NO":999,"REV_AT_EPOCH":10756,"BSTAR":5.457197e-6,"MEAN_MOTION_DOT":-1.3e-6,"MEAN_MOTION_DDOT":0},{"OBJECT_NAME":"STARLINK-30508","OBJECT_ID":"2023-151R","EPOCH":"2025-09-04T11:03:08.707680","MEAN_MOTION":15.02528942,"ECCENTRICITY":0.0001369,"INCLINATION":43.0028,"RA_OF_ASC_NODE":283.9532,"ARG_OF_PERICENTER":272.0998,"MEAN_ANOMALY":87.9688,"EPHEMERIS_TYPE":0,"CLASSIFICATION_TYPE":"U","NORAD_CAT_ID":57979,"ELEMENT_SET_NO":999,"REV_AT_EPOCH":10756,"BSTAR":-0.00010525286,"MEAN_MOTION_DOT":-1.625e-5,"MEAN_MOTION_DDOT":0},{"OBJECT_NAME":"STARLINK-30504","OBJECT_ID":"2023-151S","EPOCH":"2025-09-04T14:32:18.726720","MEAN_MOTION":15.25992651,"ECCENTRICITY":0.00014506,"INCLINATION":43.0027,"RA_OF_ASC_NODE":204.2843,"ARG_OF_PERICENTER":300.9094,"MEAN_ANOMALY":59.1615,"EPHEMERIS_TYPE":0,"CLASSIFICATION_TYPE":"U","NORAD_CAT_ID":57980,"ELEMENT_SET_NO":999,"REV_AT_EPOCH":10851,"BSTAR":-0.00071694662,"MEAN_MOTION_DOT":-0.0001901,"MEAN_MOTION_DDOT":0},{"OBJECT_NAME":"STARLINK-30510","OBJECT_ID":"2023-151T","EPOCH":"2025-09-04T10:58:21.426816","MEAN_MOTION":15.02519342,"ECCENTRICITY":0.00013519,"INCLINATION":43.0041,"RA_OF_ASC_NODE":283.938,"ARG_OF_PERICENTER":264.3323,"MEAN_ANOMALY":95.7366,"EPHEMERIS_TYPE":0,"CLASSIFICATION_TYPE":"U","NORAD_CAT_ID":57981,"ELEMENT_SET_NO":999,"REV_AT_EPOCH":10756,"BSTAR":0.00015607813,"MEAN_MOTION_DOT":1.904e-5,"MEAN_MOTION_DDOT":0},{"OBJECT_NAME":"STARLINK-30507","OBJECT_ID":"2023-151U","EPOCH":"2025-09-04T09:17:49.943040","MEAN_MOTION":15.02530436,"ECCENTRICITY":0.00013944,"INCLINATION":43.0035,"RA_OF_ASC_NODE":284.275,"ARG_OF_PERICENTER":266.1819,"MEAN_ANOMALY":93.8864,"EPHEMERIS_TYPE":0,"CLASSIFICATION_TYPE":"U","NORAD_CAT_ID":57982,"ELEMENT_SET_NO":999,"REV_AT_EPOCH":10755,"BSTAR":3.5948934e-5,"MEAN_MOTION_DOT":2.82e-6,"MEAN_MOTION_DDOT":0},{"OBJECT_NAME":"STARLINK-30515","OBJECT_ID":"2023-151V","EPOCH":"2025-09-04T09:13:02.205120","MEAN_MOTION":15.02522226,"ECCENTRICITY":0.00011077,"INCLINATION":43.0028,"RA_OF_ASC_NODE":284.2487,"ARG_OF_PERICENTER":270.9625,"MEAN_ANOMALY":89.1091,"EPHEMERIS_TYPE":0,"CLASSIFICATION_TYPE":"U","NORAD_CAT_ID":57983,"ELEMENT_SET_NO":999,"REV_AT_EPOCH":10755,"BSTAR":4.8782792e-5,"MEAN_MOTION_DOT":4.55e-6,"MEAN_MOTION_DDOT":0},{"OBJECT_NAME":"STARLINK-30516","OBJECT_ID":"2023-151W","EPOCH":"2025-09-04T10:43:58.092960","MEAN_MOTION":15.02530388,"ECCENTRICITY":0.00010759,"INCLINATION":43.0028,"RA_OF_ASC_NODE":283.8625,"ARG_OF_PERICENTER":265.0234,"MEAN_ANOMALY":95.0486,"EPHEMERIS_TYPE":0,"CLASSIFICATION_TYPE":"U","NORAD_CAT_ID":57984,"ELEMENT_SET_NO":999,"REV_AT_EPOCH":10756,"BSTAR":2.4290573e-5,"MEAN_MOTION_DOT":1.25e-6,"MEAN_MOTION_DDOT":0},{"OBJECT_NAME":"STARLINK-30519","OBJECT_ID":"2023-151X","EPOCH":"2025-09-04T09:03:27.093024","MEAN_MOTION":15.02519397,"ECCENTRICITY":0.00017852,"INCLINATION":43.0033,"RA_OF_ASC_NODE":284.2013,"ARG_OF_PERICENTER":272.8398,"MEAN_ANOMALY":87.224,"EPHEMERIS_TYPE":0,"CLASSIFICATION_TYPE":"U","NORAD_CAT_ID":57985,"ELEMENT_SET_NO":999,"REV_AT_EPOCH":10749,"BSTAR":-0.00018644839,"MEAN_MOTION_DOT":-2.72e-5,"MEAN_MOTION_DDOT":0},{"OBJECT_NAME":"STARLINK-30537","OBJECT_ID":"2023-153A","EPOCH":"2025-09-04T15:04:51.104928","MEAN_MOTION":15.02527529,"ECCENTRICITY":0.00011699,"INCLINATION":43.0068,"RA_OF_ASC_NODE":0.1272,"ARG_OF_PERICENTER":261.1527,"MEAN_ANOMALY":98.9183,"EPHEMERIS_TYPE":0,"CLASSIFICATION_TYPE":"U","NORAD_CAT_ID":57991,"ELEMENT_SET_NO":999,"REV_AT_EPOCH":10678,"BSTAR":-0.00021014941,"MEAN_MOTION_DOT":-3.041e-5,"MEAN_MOTION_DDOT":0}]
