STARLINK-30498          
1 57971U 23151H   25247.36880786 -.00000458  00000+0 -18812-4 0  9999
2 57971  43.0038 271.4053 0001298 267.1872  92.8822 15.02529092107705
STARLINK-30505          
1 57972U 23151J   25247.51841069  .00000050  00000+0  18746-4 0  9990
2 57972  43.0024 270.8088 0001210 273.4884  86.5820 15.02532731107723
STARLINK-30502          
1 57973U 23151K   25247.43972843 -.00000913  00000+0 -52539-4 0  9995
2 57973  43.0040 271.0759 0001096 280.4006  79.6713 15.02528127107713
STARLINK-30489          
1 57974U 23151L   25247.46513880 -.00000449  00000+0 -18195-4 0  9995
2 57974  43.0031 270.4178 0001292 268.0195  92.0500 15.02527692107721
STARLINK-30503          
1 57975U 23151M   25247.51397479 -.00000767  00000+0 -41719-4 0  9997
2 57975  43.0034 270.7536 0001272 267.7025  92.3672 15.02525535107729
STARLINK-30512          
1 57976U 23151N   25247.48288198 -.00002541  00000+0 -17306-3 0  9997
2 57976  43.0042 270.4885 0001871 290.4377  69.6265 15.02547445107720
STARLINK-30509          
1 57977U 23151P   25247.40403248  .00000337  00000+0  40043-4 0  9999
2 57977  43.0027 284.3972 0001365 265.8158  94.2529 15.02526879107552
STARLINK-30511          
1 57978U 23151Q   25247.46385450 -.00000130  00000+0  54572-5 0  9995
2 57978  43.0025 283.9893 0001346 271.1297  88.9391 15.02524618107568
STARLINK-30508          
1 57979U 23151R   25247.46051745 -.00001625  00000+0 -10525-3 0  9992
2 57979  43.0028 283.9532 0001369 272.0998  87.9688 15.02528942107567
STARLINK-30504          
1 57980U 23151S   25247.60577230 -.00019010  00000+0 -71695-3 0  9994
2 57980  43.0027 204.2843 0001450 300.9094  59.1615 15.25992651108512
STARLINK-30510          
1 57981U 23151T   25247.45719244  .00001904  00000+0  15608-3 0  9994
2 57981  43.0041 283.9380 0001351 264.3323  95.7366 15.02519342107567
STARLINK-30507          
1 57982U 23151U   25247.38738360  .00000282  00000+0  35949-4 0  9996
2 57982  43.0035 284.2750 0001394 266.1819  93.8864 15.02530436107551
STARLINK-30515          
1 57983U 23151V   25247.38405330  .00000455  00000+0  48783-4 0  9997
2 57983  43.0028 284.2487 0001107 270.9625  89.1091 15.02522226107559
STARLINK-30516          
1 57984U 23151W   25247.44720015  .00000125  00000+0  24291-4 0  9997
2 57984  43.0028 283.8625 0001075 265.0234  95.0486 15.02530388107567
STARLINK-30519          
1 57985U 23151X   25247.37739691 -.00002720  00000+0 -18645-3 0  9990
2 57985  43.0033 284.2013 0001785 272.8398  87.2240 15.02519397107495
STARLINK-30537          
1 57991U 23153A   25247.62836927 -.00003041  00000+0 -21015-3 0  9999
2 57991  43.0068   0.1272 0001169 261.1527  98.9183 15.02527529106785
